{
  "type": "FeatureCollection",
  "features": [
    {
      "type": "Feature",
      "properties": {
        "norad_id": 33835,
        "name": "COSMOS 2251 DEB",
        "group": "cosmos-2251-debris",
        "lat": -72.44949088087968,
        "lon": -26.16867296087243,
        "alt_km": 712.6178086066575,
        "timestamp": "2025-12-18T23:35:49.455840+00:00",
        "meta_object_name": "COSMOS 2251 DEB",
        "meta_object_id": "1993-036CC",
        "meta_epoch": "2025-12-18T12:37:38.851968",
        "meta_mean_motion": 14.62306803,
        "meta_eccentricity": 0.00542179,
        "meta_inclination": 74.0576,
        "meta_ra_of_asc_node": 90.0415,
        "meta_arg_of_pericenter": 141.9194,
        "meta_mean_anomaly": 234.9692,
        "meta_ephemeris_type": 0,
        "meta_classification_type": "U",
        "meta_norad_cat_id": 33835,
        "meta_element_set_no": 999,
        "meta_rev_at_epoch": 88874,
        "meta_bstar": 0.00075695268,
        "meta_mean_motion_dot": 3.874e-05,
        "meta_mean_motion_ddot": 0,
        "tle_line1": "1 33835U 93036CC  25352.52614412  .00003874  00000+0  75695-3 0  9991",
        "tle_line2": "2 33835  74.0576  90.0415 0054217 141.9194 234.9692 14.62306803888743"
      },
      "geometry": {
        "type": "Point",
        "coordinates": [
          -26.16867296087243,
          -72.44949088087968
        ]
      }
    },
    {
      "type": "Feature",
      "properties": {
        "norad_id": 33836,
        "name": "COSMOS 2251 DEB",
        "group": "cosmos-2251-debris",
        "lat": -41.72422007637648,
        "lon": -128.19756564478104,
        "alt_km": 648.81321637781,
        "timestamp": "2025-12-18T23:35:49.455851+00:00",
        "meta_object_name": "COSMOS 2251 DEB",
        "meta_object_id": "1993-036CD",
        "meta_epoch": "2025-12-18T11:37:52.229856",
        "meta_mean_motion": 14.79719642,
        "meta_eccentricity": 0.00226699,
        "meta_inclination": 73.9975,
        "meta_ra_of_asc_node": 247.6136,
        "meta_arg_of_pericenter": 98.6106,
        "meta_mean_anomaly": 82.9978,
        "meta_ephemeris_type": 0,
        "meta_classification_type": "U",
        "meta_norad_cat_id": 33836,
        "meta_element_set_no": 999,
        "meta_rev_at_epoch": 64173,
        "meta_bstar": 0.0010030495,
        "meta_mean_motion_dot": 7.545e-05,
        "meta_mean_motion_ddot": 0,
        "tle_line1": "1 33836U 93036CD  25352.48463229  .00007545  00000+0  10030-2 0  9995",
        "tle_line2": "2 33836  73.9975 247.6136 0022669  98.6106  82.9978 14.79719642641733"
      },
      "geometry": {
        "type": "Point",
        "coordinates": [
          -128.19756564478104,
          -41.72422007637648
        ]
      }
    },
    {
      "type": "Feature",
      "properties": {
        "norad_id": 33837,
        "name": "COSMOS 2251 DEB",
        "group": "cosmos-2251-debris",
        "lat": 4.922583222385812,
        "lon": 45.25879859717425,
        "alt_km": 729.928360832304,
        "timestamp": "2025-12-18T23:35:49.455862+00:00",
        "meta_object_name": "COSMOS 2251 DEB",
        "meta_object_id": "1993-036CE",
        "meta_epoch": "2025-12-18T13:38:35.943648",
        "meta_mean_motion": 14.50713474,
        "meta_eccentricity": 0.00359097,
        "meta_inclination": 74.0127,
        "meta_ra_of_asc_node": 44.6244,
        "meta_arg_of_pericenter": 265.4134,
        "meta_mean_anomaly": 94.2924,
        "meta_ephemeris_type": 0,
        "meta_classification_type": "U",
        "meta_norad_cat_id": 33837,
        "meta_element_set_no": 999,
        "meta_rev_at_epoch": 88880,
        "meta_bstar": 0.00019377194,
        "meta_mean_motion_dot": 7.39e-06,
        "meta_mean_motion_ddot": 0,
        "tle_line1": "1 33837U 93036CE  25352.56847157  .00000739  00000+0  19377-3 0  9993",
        "tle_line2": "2 33837  74.0127  44.6244 0035909 265.4134  94.2924 14.50713474888800"
      },
      "geometry": {
        "type": "Point",
        "coordinates": [
          45.25879859717425,
          4.922583222385812
        ]
      }
    },
    {
      "type": "Feature",
      "properties": {
        "norad_id": 33838,
        "name": "COSMOS 2251 DEB",
        "group": "cosmos-2251-debris",
        "lat": -4.497802492868476,
        "lon": -40.58847203565024,
        "alt_km": 728.8641941235637,
        "timestamp": "2025-12-18T23:35:49.455872+00:00",
        "meta_object_name": "COSMOS 2251 DEB",
        "meta_object_id": "1993-036CF",
        "meta_epoch": "2025-12-18T11:24:10.184832",
        "meta_mean_motion": 14.48380349,
        "meta_eccentricity": 0.00274964,
        "meta_inclination": 74.0361,
        "meta_ra_of_asc_node": 139.0725,
        "meta_arg_of_pericenter": 260.1562,
        "meta_mean_anomaly": 156.5011,
        "meta_ephemeris_type": 0,
        "meta_classification_type": "U",
        "meta_norad_cat_id": 33838,
        "meta_element_set_no": 999,
        "meta_rev_at_epoch": 88652,
        "meta_bstar": 0.00032753221,
        "meta_mean_motion_dot": 1.204e-05,
        "meta_mean_motion_ddot": 0,
        "tle_line1": "1 33838U 93036CF  25352.47511788  .00001204  00000+0  32753-3 0  9993",
        "tle_line2": "2 33838  74.0361 139.0725 0027496 260.1562 156.5011 14.48380349886527"
      },
      "geometry": {
        "type": "Point",
        "coordinates": [
          -40.58847203565024,
          -4.497802492868476
        ]
      }
    },
    {
      "type": "Feature",
      "properties": {
        "norad_id": 33839,
        "name": "COSMOS 2251 DEB",
        "group": "cosmos-2251-debris",
        "lat": 62.942839689223355,
        "lon": -19.597630929635514,
        "alt_km": 731.0077283801584,
        "timestamp": "2025-12-18T23:35:49.455883+00:00",
        "meta_object_name": "COSMOS 2251 DEB",
        "meta_object_id": "1993-036CG",
        "meta_epoch": "2025-12-18T15:08:33.802656",
        "meta_mean_motion": 14.64434418,
        "meta_eccentricity": 0.00852602,
        "meta_inclination": 74.0377,
        "meta_ra_of_asc_node": 195.1599,
        "meta_arg_of_pericenter": 305.8755,
        "meta_mean_anomaly": 109.6367,
        "meta_ephemeris_type": 0,
        "meta_classification_type": "U",
        "meta_norad_cat_id": 33839,
        "meta_element_set_no": 999,
        "meta_rev_at_epoch": 89666,
        "meta_bstar": 0.00015722975,
        "meta_mean_motion_dot": 8.43e-06,
        "meta_mean_motion_ddot": 0,
        "tle_line1": "1 33839U 93036CG  25352.63094679  .00000843  00000+0  15723-3 0  9993",
        "tle_line2": "2 33839  74.0377 195.1599 0085260 305.8755 109.6367 14.64434418896665"
      },
      "geometry": {
        "type": "Point",
        "coordinates": [
          -19.597630929635514,
          62.942839689223355
        ]
      }
    },
    {
      "type": "Feature",
      "properties": {
        "norad_id": 33841,
        "name": "COSMOS 2251 DEB",
        "group": "cosmos-2251-debris",
        "lat": -32.675888080950934,
        "lon": -104.03111082439574,
        "alt_km": 757.3274647262115,
        "timestamp": "2025-12-18T23:35:49.455894+00:00",
        "meta_object_name": "COSMOS 2251 DEB",
        "meta_object_id": "1993-036CJ",
        "meta_epoch": "2025-12-18T12:55:06.572064",
        "meta_mean_motion": 14.37868922,
        "meta_eccentricity": 0.00207888,
        "meta_inclination": 74.0378,
        "meta_ra_of_asc_node": 267.366,
        "meta_arg_of_pericenter": 346.6943,
        "meta_mean_anomaly": 197.0913,
        "meta_ephemeris_type": 0,
        "meta_classification_type": "U",
        "meta_norad_cat_id": 33841,
        "meta_element_set_no": 999,
        "meta_rev_at_epoch": 88197,
        "meta_bstar": 0.00017686734,
        "meta_mean_motion_dot": 5.08e-06,
        "meta_mean_motion_ddot": 0,
        "tle_line1": "1 33841U 93036CJ  25352.53827051  .00000508  00000+0  17687-3 0  9992",
        "tle_line2": "2 33841  74.0378 267.3660 0020788 346.6943 197.0913 14.37868922881973"
      },
      "geometry": {
        "type": "Point",
        "coordinates": [
          -104.03111082439574,
          -32.675888080950934
        ]
      }
    },
    {
      "type": "Feature",
      "properties": {
        "norad_id": 33842,
        "name": "COSMOS 2251 DEB",
        "group": "cosmos-2251-debris",
        "lat": -29.25957722959241,
        "lon": -161.167548644253,
        "alt_km": 722.4844930659892,
        "timestamp": "2025-12-18T23:35:49.455904+00:00",
        "meta_object_name": "COSMOS 2251 DEB",
        "meta_object_id": "1993-036CK",
        "meta_epoch": "2025-12-18T13:45:07.240608",
        "meta_mean_motion": 14.42708642,
        "meta_eccentricity": 0.0047445,
        "meta_inclination": 74.0321,
        "meta_ra_of_asc_node": 208.8245,
        "meta_arg_of_pericenter": 314.9859,
        "meta_mean_anomaly": 44.7456,
        "meta_ephemeris_type": 0,
        "meta_classification_type": "U",
        "meta_norad_cat_id": 33842,
        "meta_element_set_no": 999,
        "meta_rev_at_epoch": 88421,
        "meta_bstar": 0.00021412852,
        "meta_mean_motion_dot": 6.95e-06,
        "meta_mean_motion_ddot": 0,
        "tle_line1": "1 33842U 93036CK  25352.57300047  .00000695  00000+0  21413-3 0  9997",
        "tle_line2": "2 33842  74.0321 208.8245 0047445 314.9859  44.7456 14.42708642884212"
      },
      "geometry": {
        "type": "Point",
        "coordinates": [
          -161.167548644253,
          -29.25957722959241
        ]
      }
    }
  ]
}